OBJECT_NAME,OBJECT_ID,EPOCH,MEAN_MOTION,ECCENTRICITY,INCLINATION,RA_OF_ASC_NODE,ARG_OF_PERICENTER,MEAN_ANOMALY,EPHEMERIS_TYPE,CLASSIFICATION_TYPE,NORAD_CAT_ID,ELEMENT_SET_NO,REV_AT_EPOCH,BSTAR,MEAN_MOTION_DOT,MEAN_MOTION_DDOT
COSMOS 2058,1990-010A,2026-07-07T07:39:36.776160,15.12132791,.00079944,82.4677,289.5017,283.6003,76.4337,0,U,20465,999,96031,.99045055E-4,.1736E-4,0
SL-14 R/B,1990-010B,2026-07-07T07:59:53.367648,14.83659728,.00181568,82.5028,155.0249,265.2942,94.6200,0,U,20466,999,94622,.39443536E-4,.35E-5,0
SL-14 R/B,1990-018B,2026-07-07T04:42:36.222912,14.82230454,.00175047,82.5222,111.4068,61.3953,298.9019,0,U,20511,999,94028,.43033675E-4,.368E-5,0
HST,1990-037B,2026-07-07T10:01:18.952608,15.31001847,.00019007,28.4735,302.2866,28.7045,331.3656,0,U,20580,999,79167,.15862827E-3,.5122E-4,0
SL-16 R/B,1990-046B,2026-07-07T00:35:14.735904,14.15022999,.00124928,70.9985,47.2860,128.7827,231.4414,0,U,20625,999,86527,-.44695214E-4,-.134E-5,0
COSMOS 2084,1990-055A,2026-07-07T07:27:57.769056,15.06204447,.00071224,62.7906,287.4010,310.3089,49.7388,0,U,20663,999,95433,.11530448E-3,.1496E-4,0
SL-6 R/B(2),1990-055D,2026-07-07T11:03:06.286752,15.04067163,.0043879,62.7798,206.3848,7.9446,352.2338,0,U,20666,999,95620,.1168168E-3,.1449E-4,0
SL-8 R/B,1990-078B,2026-07-07T07:16:32.268864,14.93355009,.03449347,82.9026,143.4549,330.3952,27.8119,0,U,20775,999,82712,.51344426E-3,.18135E-3,0
SL-8 R/B,1991-006B,2026-07-07T03:11:04.418592,13.77508204,.00237551,82.9419,81.1957,61.9631,107.5126,0,U,21088,999,78051,.59375926E-4,.75E-6,0
OKEAN-3,1991-039A,2026-07-07T03:30:39.983040,15.05409793,.00119744,82.5138,221.0256,284.7347,75.2552,0,U,21397,999,88300,.10408145E-3,.1523E-4,0
COSMOS 2151,1991-042A,2026-07-07T14:23:19.010112,15.00498690,.00126883,82.4976,327.9805,20.8768,339.2972,0,U,21422,999,88117,.12847477E-3,.1647E-4,0
SL-14 R/B,1991-042B,2026-07-07T04:58:07.295232,14.81914985,.00162667,82.4936,108.1227,203.6005,156.4465,0,U,21423,999,87077,.35888658E-4,.308E-5,0
ERS-1,1991-050A,2026-07-06T21:43:04.186848,14.39529141,.00313879,98.7794,209.0845,206.5619,153.3961,0,U,21574,999,83288,.7754729E-4,.197E-5,0
ARIANE 40 R/B,1991-050F,2026-07-07T02:08:07.274976,14.42968807,.00044081,98.1864,235.7296,78.8859,281.2828,0,U,21610,999,83621,.80833503E-4,.229E-5,0
INTERCOSMOS 25,1991-086A,2026-07-07T00:05:32.576928,12.12228872,.1484182,82.6021,237.8180,219.6061,128.6898,0,U,21819,999,51115,.24390944E-3,.1235E-4,0
SL-8 R/B,1992-008B,2026-07-07T10:22:25.214592,13.75982048,.00352106,82.9264,178.7347,157.8500,354.8046,0,U,21876,999,72588,.12094891E-3,.133E-5,0
SL-8 R/B,1992-020B,2026-07-07T01:51:16.642080,13.75550288,.00283582,82.9293,65.0825,327.0562,192.6993,0,U,21938,999,71754,.8676992E-5,.23E-6,0
USA 81,1992-023A,2026-07-07T02:44:08.647008,14.32403447,.00023273,85.0060,62.5052,68.8628,291.2813,0,U,21949,999,11188,.39785983E-4,.128E-5,0
COSMOS 2219,1992-076A,2026-07-07T06:43:11.615520,14.14110104,.00177374,71.0614,128.0688,10.1700,349.9778,0,U,22219,999,73528,.19383452E-4,-.1E-6,0
SL-16 R/B,1992-076B,2026-07-07T06:51:06.204672,14.16874134,.00149993,71.0009,296.4431,272.2641,116.6457,0,U,22220,999,73877,.52980812E-4,.58E-6,0
COSMOS 2221,1992-080A,2026-07-07T09:33:19.759104,14.96588785,.00151647,82.5037,164.4001,144.3451,215.8787,0,U,22236,999,79869,.12066159E-3,.1403E-4,0
SL-16 R/B,1992-093B,2026-07-07T04:06:34.260768,14.15466783,.0002744,71.0223,113.4395,151.9525,208.1746,0,U,22285,999,73006,.64735154E-4,.79E-6,0
COSMOS 2228,1992-094A,2026-07-07T14:23:30.830496,14.97659416,.00159924,82.5189,122.4911,257.3827,102.5607,0,U,22286,999,79400,.12783432E-3,.1525E-4,0
SL-16 R/B,1993-016B,2026-07-07T08:46:12.345888,14.15311921,.00090926,71.0085,323.8253,152.0762,208.0850,0,U,22566,999,71910,-.73320137E-4,-.19E-5,0
COSMOS 2242,1993-024A,2026-07-07T08:49:50.583648,14.96968252,.00143741,82.5192,152.2348,261.9777,97.9814,0,U,22626,999,79829,.13576429E-3,.1589E-4,0
SL-16 R/B,1993-059B,2026-07-07T06:03:26.689536,14.17251272,.00162313,70.9906,118.9903,20.8890,339.2893,0,U,22803,999,69647,.10919171E-4,-.26E-6,0
ARIANE 40 R/B,1993-061H,2026-07-07T02:33:10.680768,14.32916294,.0009512,98.4810,254.5489,292.8099,67.2080,0,U,22830,999,71120,.73135544E-4,.157E-5,0
COSMOS 2278,1994-023A,2026-07-07T06:16:28.679520,14.14394776,.00100159,71.0538,284.9254,217.6314,142.4109,0,U,23087,999,66171,-.96909161E-4,-.233E-5,0
SL-16 R/B,1994-023B,2026-07-06T16:31:45.141024,14.15024765,.00015995,70.9977,180.9760,157.4247,202.6946,0,U,23088,999,66292,-.8457289E-4,-.212E-5,0
SL-16 R/B,1994-074B,2026-07-07T00:36:09.410688,14.79519407,.00064561,97.6984,213.9188,179.4769,210.7216,0,U,23343,999,70489,.53512434E-4,.351E-5,0
